,altitude,availableBikes,availableDocks,city,id,landMark,lastCommunicationTime,latitude,location,longitude,postalCode,stAddress1,stAddress2,stationName,statusKey,statusValue,testStation,totalDocks
0,,0,35,,72,,2016-01-26 06:16:32 PM,40.76727216,,-73.99392888,,W 52 St & 11 Ave,,W 52 St & 11 Ave,3,Not In Service,False,39
1,,0,8,,79,,2016-01-26 06:16:55 PM,40.71911552,,-74.00666661,,Franklin St & W Broadway,,Franklin St & W Broadway,3,Not In Service,False,33
2,,0,22,,82,,2016-01-26 06:16:09 PM,40.71117416,,-74.00016545,,St James Pl & Pearl St,,St James Pl & Pearl St,3,Not In Service,False,27
3,,0,24,,83,,2016-01-26 06:17:58 PM,40.68382604,,-73.97632328,,Atlantic Ave & Fort Greene Pl,,Atlantic Ave & Fort Greene Pl,3,Not In Service,False,62
4,,0,39,,116,,2016-01-26 06:16:45 PM,40.74177603,,-74.00149746,,W 17 St & 8 Ave,,W 17 St & 8 Ave,3,Not In Service,False,39
5,,0,14,,119,,2016-01-26 06:17:52 PM,40.69608941,,-73.97803415,,Park Ave & St Edwards St,,Park Ave & St Edwards St,3,Not In Service,False,19
6,,0,13,,120,,2016-01-26 06:15:14 PM,40.68676793,,-73.95928168,,Lexington Ave & Classon Ave,,Lexington Ave & Classon Ave,3,Not In Service,False,19
7,,0,22,,127,,2016-01-26 06:17:42 PM,40.73172428,,-74.00674436,,Barrow St & Hudson St,,Barrow St & Hudson St,3,Not In Service,False,31
8,,0,28,,128,,2016-01-26 06:16:42 PM,40.72710258,,-74.00297088,,MacDougal St & Prince St,,MacDougal St & Prince St,3,Not In Service,False,30
9,,0,46,,137,,2016-01-26 06:17:46 PM,40.761628,,-73.972924,,E 56 St & Madison Ave,,E 56 St & Madison Ave,3,Not In Service,False,46
10,,0,20,,143,,2016-01-26 06:18:00 PM,40.69239502,,-73.99337909,,Clinton St & Joralemon St,,Clinton St & Joralemon St,3,Not In Service,False,24
11,,0,7,,144,,2016-01-26 06:16:37 PM,40.69839895,,-73.98068914,,Nassau St & Navy St,,Nassau St & Navy St,3,Not In Service,False,19
12,,0,31,,146,,2016-01-26 06:18:31 PM,40.71625008,,-74.0091059,,Hudson St & Reade St,,Hudson St & Reade St,3,Not In Service,False,39
13,,0,25,,147,,2016-01-26 06:15:13 PM,40.71542197,,-74.01121978,,Greenwich St & Warren St,,Greenwich St & Warren St,3,Not In Service,False,33
14,,0,31,,150,,2016-01-26 06:17:35 PM,40.7208736,,-73.98085795,,E 2 St & Avenue C,,E 2 St & Avenue C,3,Not In Service,False,31
15,,0,29,,151,,2016-01-26 06:17:56 PM,40.7221037867,,-73.9972490072,,Cleveland Pl & Spring St,,Cleveland Pl & Spring St,3,Not In Service,False,33
16,,0,7,,152,,2016-01-26 06:16:37 PM,40.71473993,,-74.00910627,,Warren St & Church St,,Warren St & Church St,3,Not In Service,False,29
17,,0,53,,153,,2016-01-26 06:17:31 PM,40.752062307,,-73.9816324043,,E 40 St & 5 Ave,,E 40 St & 5 Ave,3,Not In Service,False,55
18,,0,3,,157,,2016-01-26 06:15:33 PM,40.69089272,,-73.99612349,,Henry St & Atlantic Ave,,Henry St & Atlantic Ave,3,Not In Service,False,23
19,,0,26,,160,,2016-01-26 06:16:18 PM,40.748238,,-73.978311,,E 37 St & Lexington Ave,,E 37 St & Lexington Ave,3,Not In Service,False,26
20,,0,14,,161,,2016-01-26 06:15:55 PM,40.72917025,,-73.99810231,,LaGuardia Pl & W 3 St,,LaGuardia Pl & W 3 St,3,Not In Service,False,35
21,,0,47,,164,,2016-01-26 06:17:40 PM,40.75323098,,-73.97032517,,E 47 St & 2 Ave,,E 47 St & 2 Ave,3,Not In Service,False,47
22,,0,45,,167,,2016-01-26 06:16:17 PM,40.7489006,,-73.97604882,,E 39 St & 3 Ave,,E 39 St & 3 Ave,3,Not In Service,False,45
23,,0,34,,168,,2016-01-26 06:14:47 PM,40.73971301,,-73.99456405,,W 18 St & 6 Ave,,W 18 St & 6 Ave,3,Not In Service,False,47
24,,0,50,,173,,2016-01-26 06:17:52 PM,40.760683271,,-73.9845272899,,Broadway & W 49 St,,Broadway & W 49 St,3,Not In Service,False,51
25,,0,19,,174,,2016-01-26 06:15:00 PM,40.7381765,,-73.97738662,,E 25 St & 1 Ave,,E 25 St & 1 Ave,3,Not In Service,False,30
26,,0,2,,195,,2016-01-26 06:16:38 PM,40.70905623,,-74.01043382,,Liberty St & Broadway,,Liberty St & Broadway,3,Not In Service,False,45
27,,0,25,,212,,2016-01-26 06:16:37 PM,40.74334935,,-74.00681753,,W 16 St & The High Line,,W 16 St & The High Line,3,Not In Service,False,28
28,,0,14,,216,,2016-01-26 06:17:21 PM,40.70037867,,-73.99548059,,Columbia Heights & Cranberry St,,Columbia Heights & Cranberry St,3,Not In Service,False,23
29,,0,23,,217,,2016-01-26 06:15:46 PM,40.70277159,,-73.99383605,,Old Fulton St,,Old Fulton St,3,Not In Service,False,39
30,,0,7,,223,,2016-01-26 06:15:56 PM,40.73781509,,-73.99994661,,W 13 St & 7 Ave,,W 13 St & 7 Ave,3,Not In Service,False,33
31,,0,27,,224,,2016-01-26 06:18:10 PM,40.71146364,,-74.00552427,,Spruce St & Nassau St,,Spruce St & Nassau St,3,Not In Service,False,31
32,,0,27,,225,,2016-01-26 06:17:07 PM,40.74195138,,-74.00803013,,W 14 St & The High Line,,W 14 St & The High Line,3,Not In Service,False,37
33,,0,54,,228,,2016-01-26 06:15:15 PM,40.7546011026,,-73.971878855,,E 48 St & 3 Ave,,E 48 St & 3 Ave,3,Not In Service,False,55
34,,0,5,,229,,2016-01-26 06:16:43 PM,40.72743423,,-73.99379025,,Great Jones St,,Great Jones St,3,Not In Service,False,23
35,,0,14,,232,,2016-01-26 06:15:53 PM,40.69597683,,-73.99014892,,Cadman Plaza E & Tillary St,,Cadman Plaza E & Tillary St,3,Not In Service,False,23
36,,0,35,,233,,2016-01-26 06:16:13 PM,40.6947570136,,-73.9905273914,,Cadman Plaza W & Pierrepont St,,Cadman Plaza W & Pierrepont St,3,Not In Service,False,38
37,,0,26,,236,,2016-01-26 06:18:07 PM,40.7284186,,-73.98713956,,St Marks Pl & 2 Ave,,St Marks Pl & 2 Ave,3,Not In Service,False,39
38,,0,18,,237,,2016-01-26 06:18:22 PM,40.73047309,,-73.98672378,,E 11 St & 2 Ave,,E 11 St & 2 Ave,3,Not In Service,False,39
39,,0,5,,238,,2016-01-26 06:16:51 PM,40.7361967,,-74.00859207,,Bank St & Washington St,,Bank St & Washington St,3,Not In Service,False,31
40,,0,30,,239,,2016-01-26 06:18:03 PM,40.69196566,,-73.9813018,,Willoughby St & Fleet St,,Willoughby St & Fleet St,3,Not In Service,False,31
41,,0,18,,241,,2016-01-26 06:17:32 PM,40.68981035,,-73.97493121,,DeKalb Ave & S Portland Ave,,DeKalb Ave & S Portland Ave,3,Not In Service,False,23
42,,0,21,,242,,2016-01-26 06:17:35 PM,40.697787,,-73.973736,,Carlton Ave & Flushing Ave,,Carlton Ave & Flushing Ave,3,Not In Service,False,23
43,,0,11,,243,,2016-01-26 06:17:46 PM,40.688226,,-73.979382,,Fulton St & Rockwell Pl,,Fulton St & Rockwell Pl,3,Not In Service,False,31
44,,0,22,,244,,2016-01-26 06:16:10 PM,40.69196035,,-73.96536851,,Willoughby Ave & Hall St,,Willoughby Ave & Hall St,3,Not In Service,False,31
45,,0,15,,245,,2016-01-26 06:15:53 PM,40.69327018,,-73.97703874,,Myrtle Ave & St Edwards St,,Myrtle Ave & St Edwards St,3,Not In Service,False,23
46,,0,7,,247,,2016-01-26 06:16:05 PM,40.73535398,,-74.00483091,,Perry St & Bleecker St,,Perry St & Bleecker St,3,Not In Service,False,20
47,,0,19,,248,,2016-01-26 06:18:07 PM,40.72185379,,-74.00771779,,Laight St & Hudson St,,Laight St & Hudson St,3,Not In Service,False,23
48,,0,13,,249,,2016-01-26 06:18:27 PM,40.71870987,,-74.0090009,,Harrison St & Hudson St,,Harrison St & Hudson St,3,Not In Service,False,27
49,,0,28,,250,,2016-01-26 06:15:46 PM,40.72456089,,-73.99565293,,Lafayette St & Jersey St,,Lafayette St & Jersey St,3,Not In Service,False,40
50,,0,15,,251,,2016-01-26 06:15:55 PM,40.72317958,,-73.99480012,,Mott St & Prince St,,Mott St & Prince St,3,Not In Service,False,27
51,,0,23,,252,,2016-01-26 06:15:16 PM,40.73226398,,-73.99852205,,MacDougal St & Washington Sq,,MacDougal St & Washington Sq,3,Not In Service,False,33
52,,0,49,,253,,2016-01-26 06:15:55 PM,40.73543934,,-73.99453948,,W 13 St & 5 Ave,,W 13 St & 5 Ave,3,Not In Service,False,55
53,,0,12,,254,,2016-01-26 06:15:17 PM,40.73532427,,-73.99800419,,W 11 St & 6 Ave,,W 11 St & 6 Ave,3,Not In Service,False,31
54,,0,38,,257,,2016-01-26 06:16:00 PM,40.71939226,,-74.00247214,,Lispenard St & Broadway,,Lispenard St & Broadway,3,Not In Service,False,39
55,,0,14,,258,,2016-01-26 06:18:05 PM,40.68940747,,-73.96885458,,DeKalb Ave & Vanderbilt Ave,,DeKalb Ave & Vanderbilt Ave,3,Not In Service,False,23
56,,0,15,,259,,2016-01-26 06:18:16 PM,40.70122128,,-74.01234218,,South St & Whitehall St,,South St & Whitehall St,3,Not In Service,False,39
57,,0,35,,260,,2016-01-26 06:16:21 PM,40.70365182,,-74.01167797,,Broad St & Bridge St,,Broad St & Bridge St,3,Not In Service,False,35
58,,0,9,,261,,2016-01-26 06:17:23 PM,40.69474881,,-73.98362464,,Johnson St & Gold St,,Johnson St & Gold St,3,Not In Service,False,27
59,,0,20,,262,,2016-01-26 06:16:04 PM,40.6917823,,-73.9737299,,Washington Park,,Washington Park,3,Not In Service,False,24
60,,0,29,,263,,2016-01-26 06:17:04 PM,40.71729,,-73.996375,,Elizabeth St & Hester St,,Elizabeth St & Hester St,3,Not In Service,False,31
61,,0,5,,264,,2016-01-26 06:15:33 PM,40.70706456,,-74.00731853,,Maiden Ln & Pearl St,,Maiden Ln & Pearl St,3,Not In Service,False,27
62,,0,25,,265,,2016-01-26 06:18:34 PM,40.72229346,,-73.99147535,,Stanton St & Chrystie St,,Stanton St & Chrystie St,3,Not In Service,False,35
63,,0,18,,266,,2016-01-26 06:16:03 PM,40.72368361,,-73.97574813,,Avenue D & E 8 St,,Avenue D & E 8 St,3,Not In Service,False,24
64,,0,56,,267,,2016-01-26 06:17:21 PM,40.75097711,,-73.98765428,,Broadway & W 36 St,,Broadway & W 36 St,3,Not In Service,False,57
65,,0,26,,268,,2016-01-26 06:17:19 PM,40.71910537,,-73.99973337,,Howard St & Centre St,,Howard St & Centre St,3,Not In Service,False,27
66,,0,10,,270,,2016-01-26 06:16:53 PM,40.69308257,,-73.97178913,,Adelphi St & Myrtle Ave,,Adelphi St & Myrtle Ave,3,Not In Service,False,23
67,,0,7,,274,,2016-01-26 06:18:32 PM,40.68691865,,-73.976682,,Lafayette Ave & Fort Greene Pl,,Lafayette Ave & Fort Greene Pl,3,Not In Service,False,31
68,,0,12,,275,,2016-01-26 06:17:18 PM,40.68650065,,-73.96563307,,Washington Ave & Greene Ave,,Washington Ave & Greene Ave,3,Not In Service,False,19
69,,0,6,,276,,2016-01-26 06:15:56 PM,40.71748752,,-74.0104554,,Duane St & Greenwich St,,Duane St & Greenwich St,3,Not In Service,False,25
70,,0,9,,278,,2016-01-26 06:15:56 PM,40.69766564,,-73.98476437,,Concord St & Bridge St,,Concord St & Bridge St,3,Not In Service,False,19
71,,0,21,,279,,2016-01-26 06:16:20 PM,40.707873,,-74.00167,,Peck Slip & Front St,,Peck Slip & Front St,3,Not In Service,False,36
72,,0,19,,280,,2016-01-26 06:17:28 PM,40.73331967,,-73.99510132,,E 10 St & 5 Ave,,E 10 St & 5 Ave,3,Not In Service,False,31
73,,0,59,,281,,2016-01-26 06:15:28 PM,40.7643971,,-73.97371465,,Grand Army Plaza & Central Park S,,Grand Army Plaza & Central Park S,3,Not In Service,False,59
74,,0,16,,282,,2016-01-26 06:18:29 PM,40.70827295,,-73.96834101,,Kent Ave & S 11 St,,Kent Ave & S 11 St,3,Not In Service,False,27
75,,0,42,,284,,2016-01-26 06:17:14 PM,40.7390169121,,-74.0026376103,,Greenwich Ave & 8 Ave,,Greenwich Ave & 8 Ave,3,Not In Service,False,43
76,,0,38,,285,,2016-01-26 06:17:31 PM,40.73454567,,-73.99074142,,Broadway & E 14 St,,Broadway & E 14 St,3,Not In Service,False,47
77,,0,6,,289,,2016-01-26 06:18:32 PM,40.6845683,,-73.95881081,,Monroe St & Classon Ave,,Monroe St & Classon Ave,3,Not In Service,False,19
78,,0,20,,291,,2016-01-26 06:15:47 PM,40.713126,,-73.984844,,Madison St & Montgomery St,,Madison St & Montgomery St,3,Not In Service,False,20
79,,0,52,,293,,2016-01-26 06:18:05 PM,40.73028666,,-73.9907647,,Lafayette St & E 8 St,,Lafayette St & E 8 St,3,Not In Service,False,55
80,,0,19,,295,,2016-01-26 06:15:13 PM,40.71406667,,-73.99293911,,Pike St & E Broadway,,Pike St & E Broadway,3,Not In Service,False,24
81,,0,10,,296,,2016-01-26 06:15:01 PM,40.71413089,,-73.9970468,,Division St & Bowery,,Division St & Bowery,3,Not In Service,False,35
82,,0,24,,297,,2016-01-26 06:17:23 PM,40.734232,,-73.986923,,E 15 St & 3 Ave,,E 15 St & 3 Ave,3,Not In Service,False,27
83,,0,17,,298,,2016-01-26 06:16:45 PM,40.68683208,,-73.9796772,,3 Ave & Schermerhorn St,,3 Ave & Schermerhorn St,3,Not In Service,False,35
84,,0,38,,300,,2016-01-26 06:17:38 PM,40.728145,,-73.990214,,Shevchenko Pl & E 7 St,,Shevchenko Pl & E 7 St,3,Not In Service,False,55
85,,0,33,,301,,2016-01-26 06:16:17 PM,40.72217444,,-73.98368779,,E 2 St & Avenue B,,E 2 St & Avenue B,3,Not In Service,False,37
86,,0,13,,302,,2016-01-26 06:17:56 PM,40.72082834,,-73.97793172,,Avenue D & E 3 St,,Avenue D & E 3 St,3,Not In Service,False,23
87,,0,29,,303,,2016-01-26 06:15:27 PM,40.72362738,,-73.99949601,,Mercer St & Spring St,,Mercer St & Spring St,3,Not In Service,False,31
88,,0,23,,304,,2016-01-26 06:16:20 PM,40.70463334,,-74.01361706,,Broadway & Battery Pl,,Broadway & Battery Pl,3,Not In Service,False,36
89,,0,30,,305,,2016-01-26 06:17:57 PM,40.76095756,,-73.96724467,,E 58 St & 3 Ave,,E 58 St & 3 Ave,3,Not In Service,False,33
90,,0,14,,306,,2016-01-26 06:16:27 PM,40.70823502,,-74.00530063,,Cliff St & Fulton St,,Cliff St & Fulton St,3,Not In Service,False,37
91,,0,20,,307,,2016-01-26 06:17:22 PM,40.71427487,,-73.98990025,,Canal St & Rutgers St,,Canal St & Rutgers St,3,Not In Service,False,29
92,,0,14,,308,,2016-01-26 06:18:31 PM,40.71307916,,-73.99851193,,St James Pl & Oliver St,,St James Pl & Oliver St,3,Not In Service,False,27
93,,0,25,,309,,2016-01-26 06:16:00 PM,40.7149787,,-74.013012,,Murray St & West St,,Murray St & West St,3,Not In Service,False,41
94,,0,13,,310,,2016-01-26 06:15:20 PM,40.68926942,,-73.98912867,,State St & Smith St,,State St & Smith St,3,Not In Service,False,36
95,,0,25,,311,,2016-01-26 06:17:39 PM,40.7172274,,-73.98802084,,Norfolk St & Broome St,,Norfolk St & Broome St,3,Not In Service,False,31
96,,0,28,,312,,2016-01-26 06:16:48 PM,40.722055,,-73.989111,,Allen St & E Houston St,,Allen St & E Houston St,3,Not In Service,False,31
97,,0,3,,313,,2016-01-26 06:14:43 PM,40.69610226,,-73.96751037,,Washington Ave & Park Ave,,Washington Ave & Park Ave,3,Not In Service,False,23
98,,0,17,,314,,2016-01-26 06:15:16 PM,40.69383,,-73.990539,,Cadman Plaza West & Montague St,,Cadman Plaza West & Montague St,3,Not In Service,False,39
99,,0,2,,315,,2016-01-26 06:17:55 PM,40.70355377,,-74.00670227,,South St & Gouverneur Ln,,South St & Gouverneur Ln,3,Not In Service,False,29
100,,0,40,,316,,2016-01-26 06:16:29 PM,40.70955958,,-74.00653609,,Fulton St & William St,,Fulton St & William St,3,Not In Service,False,43
101,,0,25,,317,,2016-01-26 06:15:02 PM,40.72453734,,-73.98185424,,E 6 St & Avenue B,,E 6 St & Avenue B,3,Not In Service,False,27
102,,0,20,,319,,2016-01-26 06:17:15 PM,40.711066,,-74.009447,,Fulton St & Broadway,,Fulton St & Broadway,3,Not In Service,False,33
103,,0,5,,320,,2016-01-26 06:15:52 PM,40.717571,,-74.005549,,Leonard St & Church St,,Leonard St & Church St,3,Not In Service,False,39
104,,0,17,,321,,2016-01-26 06:17:29 PM,40.69991755,,-73.98971773,,Cadman Plaza E & Red Cross Pl,,Cadman Plaza E & Red Cross Pl,3,Not In Service,False,27
105,,0,21,,322,,2016-01-26 06:15:57 PM,40.696192,,-73.991218,,Clinton St & Tillary St,,Clinton St & Tillary St,3,Not In Service,False,31
106,,0,11,,323,,2016-01-26 06:18:21 PM,40.69236178,,-73.98631746,,Lawrence St & Willoughby St,,Lawrence St & Willoughby St,3,Not In Service,False,39
107,,0,23,,324,,2016-01-26 06:15:09 PM,40.689888,,-73.981013,,DeKalb Ave & Hudson Ave,,DeKalb Ave & Hudson Ave,3,Not In Service,False,51
108,,0,25,,325,,2016-01-26 06:18:19 PM,40.73624527,,-73.98473765,,E 19 St & 3 Ave,,E 19 St & 3 Ave,3,Not In Service,False,35
109,,0,25,,326,,2016-01-26 06:15:48 PM,40.72953837,,-73.98426726,,E 11 St & 1 Ave,,E 11 St & 1 Ave,3,Not In Service,False,27
110,,0,24,,327,,2016-01-26 06:16:37 PM,40.7153379,,-74.01658354,,Vesey Pl & River Terrace,,Vesey Pl & River Terrace,3,Not In Service,False,39
111,,0,19,,328,,2016-01-26 06:17:14 PM,40.72405549,,-74.00965965,,Watts St & Greenwich St,,Watts St & Greenwich St,3,Not In Service,False,23
112,,0,30,,329,,2016-01-26 06:16:38 PM,40.72043411,,-74.01020609,,Greenwich St & N Moore St,,Greenwich St & N Moore St,3,Not In Service,False,31
113,,0,29,,330,,2016-01-26 06:17:17 PM,40.71450451,,-74.00562789,,Reade St & Broadway,,Reade St & Broadway,3,Not In Service,False,39
114,,0,24,,331,,2016-01-26 06:16:04 PM,40.71173107,,-73.99193043,,Pike St & Monroe St,,Pike St & Monroe St,3,Not In Service,False,27
115,,0,9,,332,,2016-01-26 06:17:45 PM,40.71219906,,-73.97948148,,Cherry St,,Cherry St,3,Not In Service,False,24
116,,0,6,,334,,2016-01-26 06:17:14 PM,40.74238787,,-73.99726235,,W 20 St & 7 Ave,,W 20 St & 7 Ave,3,Not In Service,False,31
117,,0,25,,335,,2016-01-26 06:16:49 PM,40.72903917,,-73.99404649,,Washington Pl & Broadway,,Washington Pl & Broadway,3,Not In Service,False,27
118,,0,20,,336,,2016-01-26 06:17:53 PM,40.73047747,,-73.99906065,,Sullivan St & Washington Sq,,Sullivan St & Washington Sq,3,Not In Service,False,36
119,,0,36,,337,,2016-01-26 06:18:07 PM,40.7037992,,-74.00838676,,Old Slip & Front St,,Old Slip & Front St,3,Not In Service,False,37
120,,0,1,,339,,2016-01-26 06:18:02 PM,40.72580614,,-73.97422494,,Avenue D & E 12 St,,Avenue D & E 12 St,3,Not In Service,False,24
121,,0,22,,340,,2016-01-26 06:15:02 PM,40.71269042,,-73.98776323,,Madison St & Clinton St,,Madison St & Clinton St,3,Not In Service,False,27
122,,0,13,,341,,2016-01-26 06:14:39 PM,40.71782143,,-73.97628939,,Stanton St & Mangin St,,Stanton St & Mangin St,3,Not In Service,False,19
123,,0,10,,342,,2016-01-26 06:17:26 PM,40.71739973,,-73.98016555,,Columbia St & Rivington St,,Columbia St & Rivington St,3,Not In Service,False,29
124,,0,0,,343,,2016-01-26 06:18:04 PM,40.69794,,-73.96986848,,Clinton Ave & Flushing Ave,,Clinton Ave & Flushing Ave,3,Not In Service,False,23
125,,0,13,,344,,2016-01-26 06:16:23 PM,40.6851443,,-73.95380904,,Monroe St & Bedford Ave,,Monroe St & Bedford Ave,3,Not In Service,False,23
126,,0,1,,345,,2016-01-26 06:16:03 PM,40.73649403,,-73.99704374,,W 13 St & 6 Ave,,W 13 St & 6 Ave,3,Not In Service,False,35
127,,0,5,,346,,2016-01-26 06:14:44 PM,40.73652889,,-74.00618026,,Bank St & Hudson St,,Bank St & Hudson St,3,Not In Service,False,27
128,,0,32,,347,,2016-01-26 06:15:42 PM,40.728846,,-74.008591,,Greenwich St & W Houston St,,Greenwich St & W Houston St,3,Not In Service,False,35
129,,0,41,,348,,2016-01-26 06:14:57 PM,40.72490985,,-74.00154702,,W Broadway & Spring St,,W Broadway & Spring St,3,Not In Service,False,42
130,,0,20,,350,,2016-01-26 06:16:03 PM,40.71559509,,-73.9870295,,Clinton St & Grand St,,Clinton St & Grand St,3,Not In Service,False,28
131,,0,30,,351,,2016-01-26 06:15:37 PM,40.70530954,,-74.00612572,,Front St & Maiden Ln,,Front St & Maiden Ln,3,Not In Service,False,39
132,,0,34,,352,,2016-01-26 06:16:54 PM,40.76340613,,-73.97722479,,W 56 St & 6 Ave,,W 56 St & 6 Ave,3,Not In Service,False,36
133,,0,16,,353,,2016-01-26 06:14:58 PM,40.68539567,,-73.97431458,,S Portland Ave & Hanson Pl,,S Portland Ave & Hanson Pl,3,Not In Service,False,27
134,,0,3,,354,,2016-01-26 06:17:53 PM,40.69363137,,-73.96223558,,Emerson Pl & Myrtle Ave,,Emerson Pl & Myrtle Ave,3,Not In Service,False,23
135,,0,43,,355,,2016-01-26 06:15:31 PM,40.71602118,,-73.99974372,,Bayard St & Baxter St,,Bayard St & Baxter St,3,Not In Service,False,43
136,,0,10,,356,,2016-01-26 06:16:00 PM,40.71622644,,-73.98261206,,Bialystoker Pl & Delancey St,,Bialystoker Pl & Delancey St,3,Not In Service,False,23
137,,0,26,,357,,2016-01-26 06:17:39 PM,40.73261787,,-73.99158043,,E 11 St & Broadway,,E 11 St & Broadway,3,Not In Service,False,27
138,,0,18,,358,,2016-01-26 06:18:31 PM,40.73291553,,-74.00711384,,Christopher St & Greenwich St,,Christopher St & Greenwich St,3,Not In Service,False,36
139,,0,53,,359,,2016-01-26 06:18:00 PM,40.75510267,,-73.97498696,,E 47 St & Park Ave,,E 47 St & Park Ave,3,Not In Service,False,55
140,,0,39,,360,,2016-01-26 06:15:44 PM,40.70717936,,-74.00887308,,William St & Pine St,,William St & Pine St,3,Not In Service,False,39
141,,0,37,,361,,2016-01-26 06:18:19 PM,40.71605866,,-73.99190759,,Allen St & Hester St,,Allen St & Hester St,3,Not In Service,False,43
142,,0,36,,362,,2016-01-26 06:15:49 PM,40.75172632,,-73.98753523,,Broadway & W 37 St,,Broadway & W 37 St,3,Not In Service,False,57
143,,0,39,,363,,2016-01-26 06:15:38 PM,40.70834698,,-74.01713445,,West Thames St,,West Thames St,3,Not In Service,False,49
144,,0,19,,364,,2016-01-26 06:16:32 PM,40.68900443,,-73.96023854,,Lafayette Ave & Classon Ave,,Lafayette Ave & Classon Ave,3,Not In Service,False,27
145,,0,18,,365,,2016-01-26 06:15:53 PM,40.68223166,,-73.9614583,,Fulton St & Grand Ave,,Fulton St & Grand Ave,3,Not In Service,False,31
146,,0,8,,366,,2016-01-26 06:15:59 PM,40.693261,,-73.968896,,Clinton Ave & Myrtle Ave,,Clinton Ave & Myrtle Ave,3,Not In Service,False,33
147,,0,34,,367,,2016-01-26 06:18:12 PM,40.75828065,,-73.97069431,,E 53 St & Lexington Ave,,E 53 St & Lexington Ave,3,Not In Service,False,34
148,,0,36,,368,,2016-01-26 06:15:52 PM,40.73038599,,-74.00214988,,Carmine St & 6 Ave,,Carmine St & 6 Ave,3,Not In Service,False,39
149,,0,25,,369,,2016-01-26 06:17:47 PM,40.73224119,,-74.00026394,,Washington Pl & 6 Ave,,Washington Pl & 6 Ave,3,Not In Service,False,35
150,,0,14,,372,,2016-01-26 06:15:32 PM,40.694528,,-73.958089,,Franklin Ave & Myrtle Ave,,Franklin Ave & Myrtle Ave,3,Not In Service,False,27
151,,0,0,,373,,2016-01-26 06:15:43 PM,40.69331716,,-73.95381995,,Willoughby Ave & Walworth St,,Willoughby Ave & Walworth St,3,Not In Service,False,19
152,,0,22,,375,,2016-01-26 06:15:15 PM,40.72679454,,-73.99695094,,Mercer St & Bleecker St,,Mercer St & Bleecker St,3,Not In Service,False,30
153,,0,15,,376,,2016-01-26 06:15:47 PM,40.70862144,,-74.00722156,,John St & William St,,John St & William St,3,Not In Service,False,43
154,,0,21,,377,,2016-01-26 06:15:06 PM,40.72243797,,-74.00566443,,6 Ave & Canal St,,6 Ave & Canal St,3,Not In Service,False,47
155,,0,26,,379,,2016-01-26 06:17:50 PM,40.749156,,-73.9916,,W 31 St & 7 Ave,,W 31 St & 7 Ave,3,Not In Service,False,42
156,,0,1,,380,,2016-01-26 06:14:42 PM,40.73401143,,-74.00293877,,W 4 St & 7 Ave S,,W 4 St & 7 Ave S,3,Not In Service,False,39
157,,0,4,,382,,2016-01-26 06:16:33 PM,40.73492695,,-73.99200509,,University Pl & E 14 St,,University Pl & E 14 St,3,Not In Service,False,36
158,,0,24,,383,,2016-01-26 06:16:34 PM,40.735238,,-74.000271,,Greenwich Ave & Charles St,,Greenwich Ave & Charles St,3,Not In Service,False,39
159,,0,17,,384,,2016-01-26 06:15:00 PM,40.683048,,-73.964915,,Fulton St & Washington Ave,,Fulton St & Washington Ave,3,Not In Service,False,31
160,,0,29,,385,,2016-01-26 06:17:12 PM,40.75797322,,-73.96603308,,E 55 St & 2 Ave,,E 55 St & 2 Ave,3,Not In Service,False,29
161,,0,17,,386,,2016-01-26 06:15:46 PM,40.71494807,,-74.00234482,,Centre St & Worth St,,Centre St & Worth St,3,Not In Service,False,43
162,,0,35,,387,,2016-01-26 06:18:16 PM,40.71273266,,-74.0046073,,Centre St & Chambers St,,Centre St & Chambers St,3,Not In Service,False,39
163,,0,32,,388,,2016-01-26 06:16:08 PM,40.749717753,,-74.002950346,,W 26 St & 10 Ave,,W 26 St & 10 Ave,3,Not In Service,False,35
164,,0,26,,389,,2016-01-26 06:17:57 PM,40.71044554,,-73.96525063,,Broadway & Berry St,,Broadway & Berry St,3,Not In Service,False,27
165,,0,15,,390,,2016-01-26 06:16:39 PM,40.69221589,,-73.9842844,,Duffield St & Willoughby St,,Duffield St & Willoughby St,3,Not In Service,False,31
166,,0,20,,391,,2016-01-26 06:18:37 PM,40.69760127,,-73.99344559,,Clark St & Henry St,,Clark St & Henry St,3,Not In Service,False,31
167,,0,22,,392,,2016-01-26 06:15:13 PM,40.695065,,-73.987167,,Jay St & Tech Pl,,Jay St & Tech Pl,3,Not In Service,False,32
168,,0,31,,393,,2016-01-26 06:17:53 PM,40.72299208,,-73.97995466,,E 5 St & Avenue C,,E 5 St & Avenue C,3,Not In Service,False,31
169,,0,31,,394,,2016-01-26 06:16:01 PM,40.72521311,,-73.97768752,,E 9 St & Avenue C,,E 9 St & Avenue C,3,Not In Service,False,32
170,,0,4,,395,,2016-01-26 06:17:09 PM,40.68807003,,-73.98410637,,Bond St & Schermerhorn St,,Bond St & Schermerhorn St,3,Not In Service,False,30
171,,0,21,,396,,2016-01-26 06:14:48 PM,40.680342423,,-73.9557689392,,Lefferts Pl & Franklin Ave,,Lefferts Pl & Franklin Ave,3,Not In Service,False,25
172,,0,22,,397,,2016-01-26 06:15:20 PM,40.68415748,,-73.96922273,,Fulton St & Clermont Ave,,Fulton St & Clermont Ave,3,Not In Service,False,27
173,,0,13,,398,,2016-01-26 06:16:21 PM,40.69165183,,-73.9999786,,Atlantic Ave & Furman St,,Atlantic Ave & Furman St,3,Not In Service,False,31
174,,0,16,,399,,2016-01-26 06:16:06 PM,40.68851534,,-73.9647628,,Lafayette Ave & St James Pl,,Lafayette Ave & St James Pl,3,Not In Service,False,27
175,,0,2,,400,,2016-01-26 06:16:55 PM,40.71926081,,-73.98178024,,Pitt St & Stanton St,,Pitt St & Stanton St,3,Not In Service,False,15
176,,0,41,,401,,2016-01-26 06:16:35 PM,40.72019576,,-73.98997825,,Allen St & Rivington St,,Allen St & Rivington St,3,Not In Service,False,42
177,,0,20,,402,,2016-01-26 06:18:29 PM,40.7403432,,-73.98955109,,Broadway & E 22 St,,Broadway & E 22 St,3,Not In Service,False,42
178,,0,29,,403,,2016-01-26 06:18:33 PM,40.72502876,,-73.99069656,,E 2 St & 2 Ave,,E 2 St & 2 Ave,3,Not In Service,False,31
179,,0,27,,405,,2016-01-26 06:15:38 PM,40.739323,,-74.008119,,Washington St & Gansevoort St,,Washington St & Gansevoort St,3,Not In Service,False,40
180,,0,3,,406,,2016-01-26 06:15:38 PM,40.69512845,,-73.99595065,,Hicks St & Montague St,,Hicks St & Montague St,3,Not In Service,False,34
181,,0,30,,407,,2016-01-26 06:17:33 PM,40.700469,,-73.991454,,Henry St & Poplar St,,Henry St & Poplar St,3,Not In Service,False,37
182,,0,11,,408,,2016-01-26 06:15:29 PM,40.71076228,,-73.99400398,,Market St & Cherry St,,Market St & Cherry St,3,Not In Service,False,23
183,,0,16,,409,,2016-01-26 06:16:29 PM,40.6906495,,-73.95643107,,DeKalb Ave & Skillman St,,DeKalb Ave & Skillman St,3,Not In Service,False,19
184,,0,32,,410,,2016-01-26 06:14:59 PM,40.72066442,,-73.98517977,,Suffolk St & Stanton St,,Suffolk St & Stanton St,3,Not In Service,False,35
185,,0,13,,411,,2016-01-26 06:17:31 PM,40.72228087,,-73.97668709,,E 6 St & Avenue D,,E 6 St & Avenue D,3,Not In Service,False,23
186,,0,27,,412,,2016-01-26 06:16:27 PM,40.7158155,,-73.99422366,,Forsyth St & Canal St,,Forsyth St & Canal St,3,Not In Service,False,29
187,,0,16,,414,,2016-01-26 06:15:21 PM,40.70281858,,-73.98765762,,Pearl St & Anchorage Pl,,Pearl St & Anchorage Pl,3,Not In Service,False,24
188,,0,22,,415,,2016-01-26 06:15:39 PM,40.7047177,,-74.00926027,,Pearl St & Hanover Square,,Pearl St & Hanover Square,3,Not In Service,False,42
189,,0,28,,416,,2016-01-26 06:15:33 PM,40.68753406,,-73.97265183,,Cumberland St & Lafayette Ave,,Cumberland St & Lafayette Ave,3,Not In Service,False,31
190,,0,23,,417,,2016-01-26 06:15:48 PM,40.71291224,,-74.01020234,,Barclay St & Church St,,Barclay St & Church St,3,Not In Service,False,23
191,,0,8,,418,,2016-01-26 06:15:03 PM,40.70224,,-73.982578,,Front St & Gold St,,Front St & Gold St,3,Not In Service,False,23
192,,0,22,,419,,2016-01-26 06:15:42 PM,40.69580705,,-73.97355569,,Carlton Ave & Park Ave,,Carlton Ave & Park Ave,3,Not In Service,False,23
193,,0,19,,420,,2016-01-26 06:16:05 PM,40.68764484,,-73.96968902,,Clermont Ave & Lafayette Ave,,Clermont Ave & Lafayette Ave,3,Not In Service,False,23
194,,0,7,,421,,2016-01-26 06:16:45 PM,40.69573398,,-73.97129668,,Clermont Ave & Park Ave,,Clermont Ave & Park Ave,3,Not In Service,False,19
195,,0,52,,422,,2016-01-26 06:17:15 PM,40.770513,,-73.988038,,W 59 St & 10 Ave,,W 59 St & 10 Ave,3,Not In Service,False,55
196,,0,3,,423,,2015-12-14 11:04:17 AM,40.76584941,,-73.98690506,,W 54 St & 9 Ave,,W 54 St & 9 Ave,3,Not In Service,False,3
197,,0,23,,426,,2016-01-26 06:15:38 PM,40.71754834,,-74.01322069,,West St & Chambers St,,West St & Chambers St,3,Not In Service,False,31
198,,0,47,,427,,2016-01-26 06:17:07 PM,40.701907,,-74.013942,,Bus Slip & State St,,Bus Slip & State St,3,Not In Service,False,47
199,,0,6,,428,,2016-01-26 06:16:13 PM,40.72467721,,-73.98783413,,E 3 St & 1 Ave,,E 3 St & 1 Ave,3,Not In Service,False,31
200,,0,12,,430,,2016-01-26 06:18:33 PM,40.7014851,,-73.98656928,,York St & Jay St,,York St & Jay St,3,Not In Service,False,27
201,,0,30,,432,,2016-01-26 06:16:12 PM,40.72621788,,-73.98379855,,E 7 St & Avenue A,,E 7 St & Avenue A,3,Not In Service,False,31
202,,0,38,,433,,2016-01-26 06:16:55 PM,40.72955361,,-73.98057249,,E 13 St & Avenue A,,E 13 St & Avenue A,3,Not In Service,False,39
203,,0,10,,434,,2016-01-26 06:15:01 PM,40.74317449,,-74.00366443,,9 Ave & W 18 St,,9 Ave & W 18 St,3,Not In Service,False,27
204,,0,36,,435,,2016-01-26 06:17:44 PM,40.74173969,,-73.99415556,,W 21 St & 6 Ave,,W 21 St & 6 Ave,3,Not In Service,False,47
205,,0,20,,436,,2016-01-26 06:18:14 PM,40.68216564,,-73.95399026,,Hancock St & Bedford Ave,,Hancock St & Bedford Ave,3,Not In Service,False,27
206,,0,23,,437,,2016-01-26 06:17:25 PM,40.6809833854,,-73.9500479759,,Macon St & Nostrand Ave,,Macon St & Nostrand Ave,3,Not In Service,False,24
207,,0,3,,438,,2016-01-26 06:16:47 PM,40.72779126,,-73.98564945,,St Marks Pl & 1 Ave,,St Marks Pl & 1 Ave,3,Not In Service,False,27
208,,0,11,,439,,2016-01-26 06:17:13 PM,40.7262807,,-73.98978041,,E 4 St & 2 Ave,,E 4 St & 2 Ave,3,Not In Service,False,39
209,,0,32,,440,,2016-01-26 06:17:07 PM,40.75255434,,-73.97282625,,E 45 St & 3 Ave,,E 45 St & 3 Ave,3,Not In Service,False,32
210,,0,34,,441,,2016-01-26 06:16:06 PM,40.756014,,-73.967416,,E 52 St & 2 Ave,,E 52 St & 2 Ave,3,Not In Service,False,35
211,,0,43,,442,,2016-01-26 06:16:44 PM,40.746647,,-73.993915,,W 27 St & 7 Ave,,W 27 St & 7 Ave,3,Not In Service,False,51
212,,0,21,,443,,2016-01-26 06:15:49 PM,40.70853074,,-73.96408963,,Bedford Ave & S 9 St,,Bedford Ave & S 9 St,3,Not In Service,False,23
213,,0,36,,444,,2016-01-26 06:15:37 PM,40.7423543,,-73.98915076,,Broadway & W 24 St,,Broadway & W 24 St,3,Not In Service,False,52
214,,0,40,,445,,2016-01-26 06:18:09 PM,40.72740794,,-73.98142006,,E 10 St & Avenue A,,E 10 St & Avenue A,3,Not In Service,False,42
215,,0,28,,446,,2016-01-26 06:18:36 PM,40.74487634,,-73.99529885,,W 24 St & 7 Ave,,W 24 St & 7 Ave,3,Not In Service,False,39
216,,0,26,,447,,2016-01-26 06:17:45 PM,40.76370739,,-73.9851615,,8 Ave & W 52 St,,8 Ave & W 52 St,3,Not In Service,False,31
217,,0,24,,448,,2016-01-26 06:15:29 PM,40.75660359,,-73.9979009,,W 37 St & 10 Ave,,W 37 St & 10 Ave,3,Not In Service,False,31
218,,0,30,,449,,2016-01-26 06:15:43 PM,40.76461837,,-73.98789473,,W 52 St & 9 Ave,,W 52 St & 9 Ave,3,Not In Service,False,31
219,,0,58,,450,,2016-01-26 06:15:16 PM,40.76227205,,-73.98788205,,W 49 St & 8 Ave,,W 49 St & 8 Ave,3,Not In Service,False,59
220,,0,0,,453,,2016-01-26 06:15:04 PM,40.74475148,,-73.99915362,,W 22 St & 8 Ave,,W 22 St & 8 Ave,3,Not In Service,False,39
221,,0,30,,454,,2016-01-26 06:18:07 PM,40.75455731,,-73.96592976,,E 51 St & 1 Ave,,E 51 St & 1 Ave,3,Not In Service,False,35
222,,0,0,,455,,2016-01-26 06:15:25 PM,40.75001986,,-73.96905301,,1 Ave & E 44 St,,1 Ave & E 44 St,3,Not In Service,False,39
223,,0,34,,456,,2016-01-26 06:16:04 PM,40.7597108,,-73.97402311,,E 53 St & Madison Ave,,E 53 St & Madison Ave,3,Not In Service,False,35
224,,0,37,,457,,2016-01-26 06:16:46 PM,40.76695317,,-73.98169333,,Broadway & W 58 St,,Broadway & W 58 St,3,Not In Service,False,39
225,,0,29,,458,,2016-01-26 06:18:03 PM,40.751396,,-74.005226,,11 Ave & W 27 St,,11 Ave & W 27 St,3,Not In Service,False,31
226,,0,26,,459,,2016-01-26 06:17:09 PM,40.746745,,-74.007756,,W 20 St & 11 Ave,,W 20 St & 11 Ave,3,Not In Service,False,49
227,,0,23,,460,,2016-01-26 06:14:57 PM,40.71285887,,-73.96590294,,S 4 St & Wythe Ave,,S 4 St & Wythe Ave,3,Not In Service,False,23
228,,0,26,,461,,2016-01-26 06:16:06 PM,40.73587678,,-73.98205027,,E 20 St & 2 Ave,,E 20 St & 2 Ave,3,Not In Service,False,39
229,,0,26,,462,,2016-01-26 06:18:34 PM,40.74691959,,-74.00451887,,W 22 St & 10 Ave,,W 22 St & 10 Ave,3,Not In Service,False,47
230,,0,23,,463,,2016-01-26 06:16:18 PM,40.74206539,,-74.00443172,,9 Ave & W 16 St,,9 Ave & W 16 St,3,Not In Service,False,25
231,,0,10,,465,,2016-01-26 06:15:50 PM,40.75513557,,-73.98658032,,Broadway & W 41 St,,Broadway & W 41 St,3,Not In Service,False,39
232,,0,14,,466,,2016-01-26 06:15:16 PM,40.74395411,,-73.99144871,,W 25 St & 6 Ave,,W 25 St & 6 Ave,3,Not In Service,False,35
233,,0,0,,467,,2016-01-26 06:14:50 PM,40.68312489,,-73.97895137,,Dean St & 4 Ave,,Dean St & 4 Ave,3,Not In Service,False,34
234,,0,57,,468,,2016-01-26 06:17:32 PM,40.7652654,,-73.98192338,,Broadway & W 55 St,,Broadway & W 55 St,3,Not In Service,False,59
235,,0,56,,469,,2016-01-26 06:15:47 PM,40.76344058,,-73.98268129,,Broadway & W 53 St,,Broadway & W 53 St,3,Not In Service,False,57
236,,0,17,,470,,2016-01-26 06:18:37 PM,40.74345335,,-74.00004031,,W 20 St & 8 Ave,,W 20 St & 8 Ave,3,Not In Service,False,37
237,,0,3,,471,,2016-01-26 06:15:50 PM,40.71286844,,-73.95698119,,Grand St & Havemeyer St,,Grand St & Havemeyer St,3,Not In Service,False,31
238,,0,39,,472,,2016-01-26 06:15:47 PM,40.7457121,,-73.98194829,,E 32 St & Park Ave,,E 32 St & Park Ave,3,Not In Service,False,41
239,,0,16,,473,,2016-01-26 06:15:59 PM,40.72110063,,-73.9919254,,Rivington St & Chrystie St,,Rivington St & Chrystie St,3,Not In Service,False,38
240,,0,47,,474,,2016-01-26 06:18:17 PM,40.7451677,,-73.98683077,,5 Ave & E 29 St,,5 Ave & E 29 St,3,Not In Service,False,47
241,,0,28,,475,,2016-01-26 06:16:22 PM,40.73524276,,-73.98758561,,E 16 St & Irving Pl,,E 16 St & Irving Pl,3,Not In Service,False,37
242,,0,41,,476,,2016-01-26 06:17:18 PM,40.74394314,,-73.97966069,,E 31 St & 3 Ave,,E 31 St & 3 Ave,3,Not In Service,False,47
243,,0,1,,477,,2016-01-26 06:17:23 PM,40.75640548,,-73.9900262,,W 41 St & 8 Ave,,W 41 St & 8 Ave,3,Not In Service,False,59
244,,0,2,,478,,2016-01-26 06:16:15 PM,40.76030096,,-73.99884222,,11 Ave & W 41 St,,11 Ave & W 41 St,3,Not In Service,False,31
245,,0,7,,479,,2016-01-26 06:16:01 PM,40.76019252,,-73.9912551,,9 Ave & W 45 St,,9 Ave & W 45 St,3,Not In Service,False,31
246,,0,14,,480,,2016-01-26 06:17:56 PM,40.76669671,,-73.99061728,,W 53 St & 10 Ave,,W 53 St & 10 Ave,3,Not In Service,False,27
247,,0,17,,481,,2016-01-26 06:16:23 PM,40.71260486,,-73.96264403,,S 3 St & Bedford Ave,,S 3 St & Bedford Ave,3,Not In Service,False,25
248,,0,23,,482,,2016-01-26 06:18:10 PM,40.73935542,,-73.99931783,,W 15 St & 7 Ave,,W 15 St & 7 Ave,3,Not In Service,False,39
249,,0,25,,483,,2016-01-26 06:15:05 PM,40.73223272,,-73.98889957,,E 12 St & 3 Ave,,E 12 St & 3 Ave,3,Not In Service,False,35
250,,0,41,,484,,2016-01-26 06:18:32 PM,40.75500254,,-73.98014437,,W 44 St & 5 Ave,,W 44 St & 5 Ave,3,Not In Service,False,44
251,,0,35,,485,,2016-01-26 06:17:00 PM,40.75038009,,-73.98338988,,W 37 St & 5 Ave,,W 37 St & 5 Ave,3,Not In Service,False,39
252,,0,35,,486,,2016-01-26 06:18:14 PM,40.7462009,,-73.98855723,,Broadway & W 29 St,,Broadway & W 29 St,3,Not In Service,False,39
253,,0,32,,487,,2016-01-26 06:18:36 PM,40.73314259,,-73.97573881,,E 20 St & FDR Drive,,E 20 St & FDR Drive,3,Not In Service,False,36
254,,0,1,,488,,2016-01-26 06:18:07 PM,40.75645824,,-73.99372222,,W 39 St & 9 Ave,,W 39 St & 9 Ave,3,Not In Service,False,41
255,,0,25,,489,,2016-01-26 06:16:34 PM,40.75066386,,-74.00176802,,10 Ave & W 28 St,,10 Ave & W 28 St,3,Not In Service,False,37
256,,0,9,,490,,2016-01-26 06:17:27 PM,40.751551,,-73.993934,,8 Ave & W 33 St,,8 Ave & W 33 St,3,Not In Service,False,59
257,,0,52,,491,,2016-01-26 06:17:03 PM,40.74096374,,-73.98602213,,E 24 St & Park Ave S,,E 24 St & Park Ave S,3,Not In Service,False,53
258,,0,25,,492,,2016-01-26 06:16:25 PM,40.75019995,,-73.99093085,,W 33 St & 7 Ave,,W 33 St & 7 Ave,3,Not In Service,False,49
259,,0,28,,493,,2016-01-26 06:16:36 PM,40.7568001,,-73.98291153,,W 45 St & 6 Ave,,W 45 St & 6 Ave,3,Not In Service,False,34
260,,0,22,,494,,2016-01-26 06:17:23 PM,40.74734825,,-73.99723551,,W 26 St & 8 Ave,,W 26 St & 8 Ave,3,Not In Service,False,35
261,,0,11,,495,,2016-01-26 06:14:51 PM,40.76269882,,-73.99301222,,W 47 St & 10 Ave,,W 47 St & 10 Ave,3,Not In Service,False,25
262,,0,43,,496,,2016-01-26 06:17:25 PM,40.73726186,,-73.99238967,,E 16 St & 5 Ave,,E 16 St & 5 Ave,3,Not In Service,False,47
263,,0,29,,497,,2016-01-26 06:16:40 PM,40.73704984,,-73.99009296,,E 17 St & Broadway,,E 17 St & Broadway,3,Not In Service,False,59
264,,0,15,,498,,2016-01-26 06:18:06 PM,40.74854862,,-73.98808416,,Broadway & W 32 St,,Broadway & W 32 St,3,Not In Service,False,30
265,,0,35,,499,,2016-01-26 06:15:51 PM,40.76915505,,-73.98191841,,Broadway & W 60 St,,Broadway & W 60 St,3,Not In Service,False,36
266,,0,52,,500,,2016-01-26 06:16:28 PM,40.76228826,,-73.98336183,,Broadway & W 51 St,,Broadway & W 51 St,3,Not In Service,False,52
267,,0,3,,501,,2016-01-26 06:14:58 PM,40.744219,,-73.97121214,,FDR Drive & E 35 St,,FDR Drive & E 35 St,3,Not In Service,False,43
268,,0,29,,502,,2016-01-26 06:15:59 PM,40.714215,,-73.981346,,Henry St & Grand St,,Henry St & Grand St,3,Not In Service,False,30
269,,0,27,,503,,2016-01-26 06:15:51 PM,40.73827428,,-73.98751968,,E 20 St & Park Ave,,E 20 St & Park Ave,3,Not In Service,False,29
270,,0,45,,504,,2016-01-26 06:15:10 PM,40.73221853,,-73.98165557,,1 Ave & E 15 St,,1 Ave & E 15 St,3,Not In Service,False,45
271,,0,4,,505,,2016-01-26 06:16:05 PM,40.74901271,,-73.98848395,,6 Ave & W 33 St,,6 Ave & W 33 St,3,Not In Service,False,36
272,,0,42,,507,,2016-01-26 06:17:24 PM,40.73912601,,-73.97973776,,E 25 St & 2 Ave,,E 25 St & 2 Ave,3,Not In Service,False,47
273,,0,19,,508,,2016-01-26 06:17:31 PM,40.76341379,,-73.99667444,,W 46 St & 11 Ave,,W 46 St & 11 Ave,3,Not In Service,False,24
274,,0,1,,509,,2016-01-26 06:16:45 PM,40.7454973,,-74.00197139,,9 Ave & W 22 St,,9 Ave & W 22 St,3,Not In Service,False,36
275,,0,47,,510,,2016-01-26 06:17:42 PM,40.7606597,,-73.98042047,,W 51 St & 6 Ave,,W 51 St & 6 Ave,3,Not In Service,False,51
276,,0,33,,511,,2016-01-26 06:16:59 PM,40.72938685,,-73.97772429,,E 14 St & Avenue B,,E 14 St & Avenue B,3,Not In Service,False,33
277,,0,4,,512,,2016-01-26 06:18:22 PM,40.7500727,,-73.99839279,,W 29 St & 9 Ave,,W 29 St & 9 Ave,3,Not In Service,False,27
278,,0,27,,513,,2016-01-26 06:17:18 PM,40.768254,,-73.988639,,W 56 St & 10 Ave,,W 56 St & 10 Ave,3,Not In Service,False,27
279,,0,0,,514,,2016-01-26 06:15:34 PM,40.76087502,,-74.00277668,,12 Ave & W 40 St,,12 Ave & W 40 St,3,Not In Service,False,53
280,,0,3,,515,,2016-01-26 06:17:13 PM,40.76009437,,-73.99461843,,W 43 St & 10 Ave,,W 43 St & 10 Ave,3,Not In Service,False,35
281,,0,31,,516,,2016-01-26 06:14:45 PM,40.75206862,,-73.96784384,,E 47 St & 1 Ave,,E 47 St & 1 Ave,3,Not In Service,False,31
282,,0,56,,517,,2016-01-26 06:18:20 PM,40.751581,,-73.97791,,Pershing Square South,,Pershing Square South,3,Not In Service,False,59
283,,0,34,,518,,2016-01-26 06:15:28 PM,40.74780373,,-73.9734419,,E 39 St & 2 Ave,,E 39 St & 2 Ave,3,Not In Service,False,39
284,,0,53,,519,,2016-01-26 06:17:35 PM,40.751873,,-73.977706,,Pershing Square North,,Pershing Square North,3,Not In Service,False,61
285,,0,39,,520,,2016-01-26 06:16:08 PM,40.75992262,,-73.97648516,,W 52 St & 5 Ave,,W 52 St & 5 Ave,3,Not In Service,False,39
286,,0,1,,521,,2016-01-26 06:16:09 PM,40.7509673487,,-73.9944420755,,8 Ave & W 31 St,,8 Ave & W 31 St,3,Not In Service,False,39
287,,0,49,,522,,2016-01-26 06:17:36 PM,40.75714758,,-73.97207836,,E 51 St & Lexington Ave,,E 51 St & Lexington Ave,3,Not In Service,False,51
288,,0,12,,523,,2016-01-26 06:16:54 PM,40.75466591,,-73.99138152,,W 38 St & 8 Ave,,W 38 St & 8 Ave,3,Not In Service,False,51
289,,0,55,,524,,2016-01-26 06:17:46 PM,40.75527307,,-73.98316936,,W 43 St & 6 Ave,,W 43 St & 6 Ave,3,Not In Service,False,57
290,,0,29,,525,,2016-01-26 06:18:07 PM,40.75594159,,-74.0021163,,W 34 St & 11 Ave,,W 34 St & 11 Ave,3,Not In Service,False,39
291,,0,34,,526,,2016-01-26 06:16:27 PM,40.74765947,,-73.98490707,,E 33 St & 5 Ave,,E 33 St & 5 Ave,3,Not In Service,False,39
292,,0,54,,527,,2016-01-26 06:14:46 PM,40.744023,,-73.976056,,E 33 St & 2 Ave,,E 33 St & 2 Ave,3,Not In Service,False,59
293,,0,35,,528,,2016-01-26 06:17:50 PM,40.74290902,,-73.97706058,,2 Ave & E 31 St,,2 Ave & E 31 St,3,Not In Service,False,39
294,,0,0,,529,,2016-01-26 06:17:11 PM,40.7575699,,-73.99098507,,W 42 St & 8 Ave,,W 42 St & 8 Ave,3,Not In Service,False,41
295,,0,34,,530,,2016-01-26 06:16:32 PM,40.771522,,-73.990541,,11 Ave & W 59 St,,11 Ave & W 59 St,3,Not In Service,False,36
296,,0,30,,531,,2016-01-26 06:18:16 PM,40.71893904,,-73.99266288,,Forsyth St & Broome St,,Forsyth St & Broome St,3,Not In Service,False,39
297,,0,27,,532,,2016-01-26 06:14:59 PM,40.710451,,-73.960876,,S 5 Pl & S 4 St,,S 5 Pl & S 4 St,3,Not In Service,False,43
298,,0,9,,533,,2016-01-26 06:17:22 PM,40.75299641,,-73.98721619,,Broadway & W 39 St,,Broadway & W 39 St,3,Not In Service,False,50
299,,0,31,,534,,2016-01-26 06:16:52 PM,40.70255065,,-74.0127234,,Water - Whitehall Plaza,,Water - Whitehall Plaza,3,Not In Service,False,31
300,,0,23,,536,,2016-01-26 06:16:28 PM,40.74144387,,-73.97536082,,1 Ave & E 30 St,,1 Ave & E 30 St,3,Not In Service,False,29
301,,0,29,,537,,2016-01-26 06:14:43 PM,40.74025878,,-73.98409214,,Lexington Ave & E 24 St,,Lexington Ave & E 24 St,3,Not In Service,False,39
302,,0,18,,539,,2016-01-26 06:15:36 PM,40.71534825,,-73.96024116,,Metropolitan Ave & Bedford Ave,,Metropolitan Ave & Bedford Ave,3,Not In Service,False,31
303,,0,24,,540,,2016-01-26 06:18:22 PM,40.7431155538,,-73.9821535349,,Lexington Ave & E 29 St,,Lexington Ave & E 29 St,3,Not In Service,False,30
304,,0,17,,545,,2016-01-26 06:17:40 PM,40.736502,,-73.97809472,,E 23 St & 1 Ave,,E 23 St & 1 Ave,3,Not In Service,False,27
305,,0,38,,546,,2016-01-26 06:15:36 PM,40.74444921,,-73.98303529,,E 30 St & Park Ave S,,E 30 St & Park Ave S,3,Not In Service,False,38
306,,0,19,,2000,,2016-01-26 06:15:35 PM,40.70255088,,-73.98940236,,Front St & Washington St,,Front St & Washington St,3,Not In Service,False,30
307,,0,11,,2001,,2016-01-26 06:15:15 PM,40.699773,,-73.979927,,Sands St & Navy St,,Sands St & Navy St,3,Not In Service,False,15
308,,0,21,,2002,,2016-01-26 06:17:24 PM,40.716887,,-73.963198,,Wythe Ave & Metropolitan Ave,,Wythe Ave & Metropolitan Ave,3,Not In Service,False,27
309,,0,5,,2003,,2016-01-26 06:15:56 PM,40.733812192,,-73.9805442095,,1 Ave & E 18 St,,1 Ave & E 18 St,3,Not In Service,False,39
310,,0,19,,2004,,2016-01-26 06:18:01 PM,40.724399,,-74.004704,,6 Ave & Broome St,,6 Ave & Broome St,3,Not In Service,False,36
311,,0,6,,2005,,2016-01-26 06:16:21 PM,40.70531194,,-73.97100056,,Railroad Ave & Kay Ave,,Railroad Ave & Kay Ave,3,Not In Service,False,12
312,,0,47,,2006,,2016-01-26 06:17:10 PM,40.76590936,,-73.97634151,,Central Park S & 6 Ave,,Central Park S & 6 Ave,3,Not In Service,False,49
313,,0,4,,2008,,2016-01-26 06:18:24 PM,40.70569254,,-74.01677685,,Little West St & 1 Pl,,Little West St & 1 Pl,3,Not In Service,False,24
314,,0,25,,2009,,2016-01-26 06:17:45 PM,40.71117444,,-73.99682619,,Catherine St & Monroe St,,Catherine St & Monroe St,3,Not In Service,False,35
315,,0,37,,2010,,2016-01-26 06:16:00 PM,40.72165481,,-74.00234737,,Grand St & Greene St,,Grand St & Greene St,3,Not In Service,False,39
316,,0,32,,2012,,2016-01-26 06:15:16 PM,40.739445,,-73.976806,,E 27 St & 1 Ave,,E 27 St & 1 Ave,3,Not In Service,False,36
317,,0,37,,2017,,2016-01-26 06:15:34 PM,40.75022392,,-73.97121414,,E 43 St & 2 Ave,,E 43 St & 2 Ave,3,Not In Service,False,39
318,,0,42,,2021,,2016-01-26 06:16:28 PM,40.75929124,,-73.98859651,,W 45 St & 8 Ave,,W 45 St & 8 Ave,3,Not In Service,False,43
319,,0,29,,2022,,2016-01-26 06:14:47 PM,40.759107,,-73.959223,,E 60 St & York Ave,,E 60 St & York Ave,3,Not In Service,False,33
320,,0,36,,2023,,2016-01-26 06:17:24 PM,40.75968085,,-73.97031366,,E 55 St & Lexington Ave,,E 55 St & Lexington Ave,3,Not In Service,False,36
321,,0,3,,3002,,2016-01-26 06:15:28 PM,40.711512,,-74.015756,,South End Ave & Liberty St,,South End Ave & Liberty St,3,Not In Service,False,25
322,,0,20,,3041,,2016-01-26 06:15:15 PM,40.67890679,,-73.94142771,,Kingston Ave & Herkimer St,,Kingston Ave & Herkimer St,3,Not In Service,False,24
323,,0,6,,3042,,2016-01-26 06:17:40 PM,40.6794268,,-73.9298911,,Fulton St & Utica Ave,,Fulton St & Utica Ave,3,Not In Service,False,19
324,,0,12,,3043,,2016-01-26 06:18:12 PM,40.6814598,,-73.934903,,Lewis Ave & Decatur St,,Lewis Ave & Decatur St,3,Not In Service,False,19
325,,0,24,,3044,,2016-01-26 06:15:10 PM,40.6800105,,-73.938475,,Albany Ave & Fulton St,,Albany Ave & Fulton St,3,Not In Service,False,27
326,,0,9,,3046,,2016-01-26 06:16:11 PM,40.682601,,-73.938037,,Marcus Garvey Blvd & Macon St,,Marcus Garvey Blvd & Macon St,3,Not In Service,False,19
327,,0,18,,3047,,2016-01-26 06:17:21 PM,40.6823687,,-73.944118,,Halsey St & Tompkins Ave,,Halsey St & Tompkins Ave,3,Not In Service,False,21
328,,0,11,,3048,,2016-01-26 06:18:00 PM,40.68402,,-73.94977,,Putnam Ave & Nostrand Ave,,Putnam Ave & Nostrand Ave,3,Not In Service,False,19
329,,0,17,,3049,,2016-01-26 06:15:36 PM,40.68488,,-73.96304,,Cambridge Pl & Gates Ave,,Cambridge Pl & Gates Ave,3,Not In Service,False,18
330,,0,19,,3050,,2016-01-26 06:17:46 PM,40.6851532,,-73.94111,,Putnam Ave & Throop Ave,,Putnam Ave & Throop Ave,3,Not In Service,False,21
331,,0,9,,3052,,2016-01-26 06:14:48 PM,40.686312,,-73.935775,,Lewis Ave & Madison St,,Lewis Ave & Madison St,3,Not In Service,False,23
332,,0,14,,3053,,2016-01-26 06:17:25 PM,40.6900815,,-73.947915,,Marcy Ave & Lafayette Ave,,Marcy Ave & Lafayette Ave,3,Not In Service,False,23
333,,0,13,,3054,,2016-01-26 06:14:49 PM,40.6894932,,-73.942061,,Greene Ave & Throop Ave,,Greene Ave & Throop Ave,3,Not In Service,False,19
334,,0,22,,3055,,2016-01-26 06:15:09 PM,40.6883337,,-73.950916,,Greene Ave & Nostrand Ave,,Greene Ave & Nostrand Ave,3,Not In Service,False,23
335,,0,18,,3056,,2016-01-26 06:18:01 PM,40.69072549,,-73.95133465,,Kosciuszko St & Nostrand Ave,,Kosciuszko St & Nostrand Ave,3,Not In Service,False,23
336,,0,16,,3057,,2016-01-26 06:18:33 PM,40.69128258,,-73.9452416,,Kosciuszko St & Tompkins Ave,,Kosciuszko St & Tompkins Ave,3,Not In Service,False,18
337,,0,16,,3058,,2016-01-26 06:16:34 PM,40.69237074,,-73.93705428,,Lewis Ave & Kosciuszko St,,Lewis Ave & Kosciuszko St,3,Not In Service,False,24
338,,0,17,,3059,,2016-01-26 06:15:17 PM,40.6933982,,-73.939877,,Pulaski St & Marcus Garvey Blvd,,Pulaski St & Marcus Garvey Blvd,3,Not In Service,False,19
339,,0,17,,3060,,2016-01-26 06:17:06 PM,40.69425403,,-73.94626915,,Willoughby Ave & Tompkins Ave,,Willoughby Ave & Tompkins Ave,3,Not In Service,False,19
340,,0,17,,3061,,2016-01-26 06:18:15 PM,40.69622937,,-73.94371094,,Throop Ave & Myrtle Ave,,Throop Ave & Myrtle Ave,3,Not In Service,False,21
341,,0,22,,3062,,2016-01-26 06:17:43 PM,40.69539817,,-73.94954908,,Myrtle Ave & Marcy Ave,,Myrtle Ave & Marcy Ave,3,Not In Service,False,23
342,,0,10,,3063,,2016-01-26 06:16:34 PM,40.69527008,,-73.95238108,,Nostrand Ave & Myrtle Ave,,Nostrand Ave & Myrtle Ave,3,Not In Service,False,20
343,,0,20,,3064,,2016-01-26 06:14:53 PM,40.69681963,,-73.93756926,,Myrtle Ave & Lewis Ave,,Myrtle Ave & Lewis Ave,3,Not In Service,False,23
344,,0,26,,3065,,2016-01-26 06:16:40 PM,40.70029511,,-73.95032283,,Union Ave & Wallabout St,,Union Ave & Wallabout St,3,Not In Service,False,27
345,,0,16,,3066,,2016-01-26 06:15:11 PM,40.69957608,,-73.94708417,,Tompkins Ave & Hopkins St,,Tompkins Ave & Hopkins St,3,Not In Service,False,19
346,,0,5,,3067,,2016-01-26 06:18:10 PM,40.7016657,,-73.9437303,,Broadway & Whipple St,,Broadway & Whipple St,3,Not In Service,False,27
347,,0,5,,3068,,2016-01-26 06:16:04 PM,40.7031724,,-73.940636,,Humboldt St & Varet St,,Humboldt St & Varet St,3,Not In Service,False,24
348,,0,9,,3069,,2016-01-26 06:16:37 PM,40.70411791,,-73.94818595,,Lorimer St & Broadway,,Lorimer St & Broadway,3,Not In Service,False,25
349,,0,22,,3070,,2016-01-26 06:16:51 PM,40.70510918,,-73.94407279,,McKibbin St & Manhattan Ave,,McKibbin St & Manhattan Ave,3,Not In Service,False,23
350,,0,10,,3071,,2016-01-26 06:17:28 PM,40.70538077,,-73.94976519,,Boerum St & Broadway,,Boerum St & Broadway,3,Not In Service,False,19
351,,0,10,,3072,,2016-01-26 06:17:35 PM,40.70583339,,-73.94644578,,Leonard St & Boerum St,,Leonard St & Boerum St,3,Not In Service,False,24
352,,0,25,,3073,,2016-01-26 06:17:29 PM,40.70691254,,-73.95441667,,Division Ave & Hooper St,,Division Ave & Hooper St,3,Not In Service,False,27
353,,0,11,,3074,,2016-01-26 06:17:59 PM,40.70767788,,-73.94016171,,Montrose Ave & Bushwick Ave,,Montrose Ave & Bushwick Ave,3,Not In Service,False,31
354,,0,31,,3075,,2016-01-26 06:14:42 PM,40.70708701,,-73.95796783,,Division Ave & Marcy Ave,,Division Ave & Marcy Ave,3,Not In Service,False,33
355,,0,22,,3076,,2016-01-26 06:15:38 PM,40.70870368,,-73.9448625,,Scholes St & Manhattan Ave,,Scholes St & Manhattan Ave,3,Not In Service,False,24
356,,0,28,,3077,,2016-01-26 06:18:05 PM,40.70877084,,-73.95095259,,Stagg St & Union Ave,,Stagg St & Union Ave,3,Not In Service,False,33
357,,0,25,,3078,,2016-01-26 06:17:25 PM,40.70925562,,-73.95982218,,Broadway & Roebling St,,Broadway & Roebling St,3,Not In Service,False,27
358,,0,7,,3079,,2016-01-26 06:16:45 PM,40.71103537,,-73.94714303,,Leonard St & Grand St,,Leonard St & Grand St,3,Not In Service,False,24
359,,0,16,,3080,,2016-01-26 06:17:26 PM,40.70934,,-73.95608,,S 4 St & Rodney St,,S 4 St & Rodney St,3,Not In Service,False,21
360,,0,21,,3081,,2016-01-26 06:15:01 PM,40.711863,,-73.944024,,Graham Ave & Grand St,,Graham Ave & Grand St,3,Not In Service,False,23
361,,0,23,,3082,,2016-01-26 06:17:51 PM,40.71167351,,-73.95141312,,Hope St & Union Ave,,Hope St & Union Ave,3,Not In Service,False,25
362,,0,24,,3083,,2016-01-26 06:15:33 PM,40.71247661,,-73.94100005,,Bushwick Ave & Powers St,,Bushwick Ave & Powers St,3,Not In Service,False,30
363,,0,10,,3084,,2016-01-26 06:14:57 PM,40.71348658,,-73.94792458,,Devoe St & Leonard St,,Devoe St & Leonard St,3,Not In Service,False,19
364,,0,9,,3085,,2016-01-26 06:16:16 PM,40.71469,,-73.95739,,Roebling St & N 4 St,,Roebling St & N 4 St,3,Not In Service,False,25
365,,0,22,,3086,,2016-01-26 06:16:01 PM,40.715143,,-73.944507,,Graham Ave & Conselyea St,,Graham Ave & Conselyea St,3,Not In Service,False,25
366,,0,4,,3087,,2016-01-26 06:15:52 PM,40.71413311,,-73.95234386,,Metropolitan Ave & Meeker Ave,,Metropolitan Ave & Meeker Ave,3,Not In Service,False,36
367,,0,13,,3088,,2016-01-26 06:17:41 PM,40.7160751,,-73.952029,,Union Ave & Jackson St,,Union Ave & Jackson St,3,Not In Service,False,22
368,,0,13,,3089,,2016-01-26 06:17:26 PM,40.7173184039,,-73.9482021332,,Leonard St & Meeker Ave,,Leonard St & Meeker Ave,3,Not In Service,False,21
369,,0,11,,3090,,2016-01-26 06:17:18 PM,40.71774592,,-73.95600096,,N 8 St & Driggs Ave,,N 8 St & Driggs Ave,3,Not In Service,False,31
370,,0,27,,3091,,2016-01-26 06:16:41 PM,40.71764,,-73.94882,,Frost St & Meeker St,,Frost St & Meeker St,3,Not In Service,False,31
371,,0,16,,3092,,2016-01-26 06:16:48 PM,40.7190095,,-73.95852515,,Berry St & N 8 St,,Berry St & N 8 St,3,Not In Service,False,27
372,,0,24,,3093,,2016-01-26 06:16:16 PM,40.71745169,,-73.95850939,,N 6 St & Bedford Ave,,N 6 St & Bedford Ave,3,Not In Service,False,28
373,,0,13,,3094,,2016-01-26 06:17:48 PM,40.7169811,,-73.94485918,,Graham Ave & Withers St,,Graham Ave & Withers St,3,Not In Service,False,18
374,,0,22,,3095,,2016-01-26 06:14:51 PM,40.71929301,,-73.94500379,,Graham Ave & Herbert St,,Graham Ave & Herbert St,3,Not In Service,False,23
375,,0,27,,3096,,2016-01-26 06:17:09 PM,40.71924,,-73.95242,,Union Ave & N 12 St,,Union Ave & N 12 St,3,Not In Service,False,39
376,,0,14,,3097,,2016-01-26 06:14:56 PM,40.71921585,,-73.9424469,,N Henry St & Richardson St,,N Henry St & Richardson St,3,Not In Service,False,19
377,,0,38,,3098,,2016-01-26 06:18:24 PM,40.71928,,-73.94861,,Leonard St & Bayard St,,Leonard St & Bayard St,3,Not In Service,False,43
378,,0,12,,3099,,2016-01-26 06:18:02 PM,40.7215224034,,-73.948982656,,Leonard St & Manhattan Ave,,Leonard St & Manhattan Ave,3,Not In Service,False,19
379,,0,0,,3100,,1969-12-31 07:00:00 PM,40.7248125644,,-73.9475262165,,Nassau Ave & Newell St,,Nassau Ave & Newell St,3,Not In Service,False,0
380,,0,15,,3101,,2016-01-26 06:17:53 PM,40.72079821,,-73.95484712,,N 12 St & Bedford Ave,,N 12 St & Bedford Ave,3,Not In Service,False,27
381,,0,25,,3102,,2016-01-26 06:17:09 PM,40.72179134,,-73.9504154,,Driggs Ave & Lorimer St,,Driggs Ave & Lorimer St,3,Not In Service,False,27
382,,0,24,,3103,,2016-01-26 06:16:49 PM,40.72153267,,-73.95782357,,N 11 St & Wythe Ave,,N 11 St & Wythe Ave,3,Not In Service,False,27
383,,0,31,,3104,,2016-01-26 06:17:29 PM,40.72057658,,-73.96150225,,Kent Ave & N 7 St,,Kent Ave & N 7 St,3,Not In Service,False,47
384,,0,4,,3105,,2016-01-26 06:16:48 PM,40.724055,,-73.955736,,N 15 St & Wythe Ave,,N 15 St & Wythe Ave,3,Not In Service,False,24
385,,0,14,,3106,,2016-01-26 06:16:55 PM,40.72325,,-73.94308,,Driggs Ave & N Henry St,,Driggs Ave & N Henry St,3,Not In Service,False,19
386,,0,39,,3107,,2016-01-26 06:18:29 PM,40.72311651,,-73.95212324,,Bedford Ave & Nassau Ave,,Bedford Ave & Nassau Ave,3,Not In Service,False,39
387,,0,18,,3108,,2016-01-26 06:15:50 PM,40.72557,,-73.94434,,Nassau Ave & Russell St,,Nassau Ave & Russell St,3,Not In Service,False,24
388,,0,2,,3109,,2016-01-26 06:18:19 PM,40.72606,,-73.95621,,Banker St & Meserole Ave,,Banker St & Meserole Ave,3,Not In Service,False,31
389,,0,25,,3110,,2016-01-26 06:18:32 PM,40.72708584,,-73.95299117,,Meserole Ave & Manhattan Ave,,Meserole Ave & Manhattan Ave,3,Not In Service,False,27
390,,0,23,,3111,,2016-01-26 06:17:56 PM,40.7258483,,-73.95064893,,Norman Ave & Leonard St,,Norman Ave & Leonard St,3,Not In Service,False,25
391,,0,6,,3112,,2016-01-26 06:16:20 PM,40.72906,,-73.95779,,Milton St & Franklin St,,Milton St & Franklin St,3,Not In Service,False,33
392,,0,15,,3113,,2016-01-26 06:18:36 PM,40.73026,,-73.95394,,Greenpoint Ave & Manhattan Ave,,Greenpoint Ave & Manhattan Ave,3,Not In Service,False,27
393,,0,14,,3114,,2016-01-26 06:16:15 PM,40.73165141,,-73.96161892,,India St & East River,,India St & East River,3,Not In Service,False,23
394,,0,20,,3115,,2016-01-26 06:15:15 PM,40.73232194,,-73.9550858,,India St & Manhattan Ave,,India St & Manhattan Ave,3,Not In Service,False,34
395,,0,30,,3116,,2016-01-26 06:17:53 PM,40.73266,,-73.95826,,Huron St & Franklin St,,Huron St & Franklin St,3,Not In Service,False,35
396,,0,19,,3117,,2016-01-26 06:17:45 PM,40.73564,,-73.95866,,Franklin St & Dupont St,,Franklin St & Dupont St,3,Not In Service,False,27
397,,0,24,,3118,,2016-01-26 06:18:21 PM,40.73555,,-73.95284,,McGuinness Blvd & Eagle St,,McGuinness Blvd & Eagle St,3,Not In Service,False,30
398,,0,19,,3119,,2016-01-26 06:14:50 PM,40.74232744,,-73.95411749,,Vernon Blvd & 50 Ave,,Vernon Blvd & 50 Ave,3,Not In Service,False,45
399,,0,18,,3120,,2016-01-26 06:15:23 PM,40.74161,,-73.96044,,Center Blvd & Borden Ave,,Center Blvd & Borden Ave,3,Not In Service,False,20
400,,0,11,,3121,,2016-01-26 06:16:50 PM,40.74524768,,-73.94733276,,Jackson Ave & 46 Rd,,Jackson Ave & 46 Rd,3,Not In Service,False,27
401,,0,6,,3122,,2016-01-26 06:18:13 PM,40.7443632871,,-73.955873251,,48 Ave & 5 St,,48 Ave & 5 St,3,Not In Service,False,31
402,,0,9,,3123,,2016-01-26 06:18:13 PM,40.74469738,,-73.93540375,,31 St & Thomson Ave,,31 St & Thomson Ave,3,Not In Service,False,27
403,,0,2,,3124,,2016-01-26 06:18:12 PM,40.74731,,-73.95451,,46 Ave & 5 St,,46 Ave & 5 St,3,Not In Service,False,27
404,,0,10,,3125,,2016-01-26 06:14:44 PM,40.74708586,,-73.94977234,,45 Rd & 11 St,,45 Rd & 11 St,3,Not In Service,False,23
405,,0,2,,3126,,2016-01-26 06:15:03 PM,40.74718234,,-73.9432635,,44 Dr & Jackson Ave,,44 Dr & Jackson Ave,3,Not In Service,False,34
406,,0,2,,3127,,2016-01-26 06:15:55 PM,40.74966,,-73.9521,,9 St & 44 Rd,,9 St & 44 Rd,3,Not In Service,False,35
407,,0,2,,3128,,2016-01-26 06:17:49 PM,40.75052534,,-73.94594845,,21 St & 43 Ave,,21 St & 43 Ave,3,Not In Service,False,23
408,,0,19,,3129,,2016-01-26 06:18:07 PM,40.75110165,,-73.94073717,,Queens Plaza North & Crescent St,,Queens Plaza North & Crescent St,3,Not In Service,False,31
409,,0,0,,3131,,1969-12-31 07:00:00 PM,40.76120833,,-73.95748565,,E 63 St & York Ave,,E 63 St & York Ave,3,Not In Service,False,0
410,,0,34,,3132,,2016-01-26 06:17:54 PM,40.76350532,,-73.97109243,,E 59 St & Madison Ave,,E 59 St & Madison Ave,3,Not In Service,False,35
411,,0,47,,3134,,2016-01-26 06:16:25 PM,40.76312584,,-73.96526895,,3 Ave & E 62 St,,3 Ave & E 62 St,3,Not In Service,False,51
412,,0,28,,3135,,2016-01-26 06:15:58 PM,40.77112927,,-73.95772297,,E 75 St & 3 Ave,,E 75 St & 3 Ave,3,Not In Service,False,41
413,,0,30,,3136,,2016-01-26 06:14:40 PM,40.76650452,,-73.97147595,,5 Ave & E 63 St,,5 Ave & E 63 St,3,Not In Service,False,47
414,,0,28,,3137,,2016-01-26 06:14:39 PM,40.77282817,,-73.96685276,,5 Ave & E 73 St,,5 Ave & E 73 St,3,Not In Service,False,31
415,,0,44,,3138,,2016-01-26 06:15:11 PM,40.774405455,,-73.9617526531,,E 77 St & Park Ave,,E 77 St & Park Ave,3,Not In Service,False,47
416,,0,43,,3139,,2016-01-26 06:16:32 PM,40.7711828754,,-73.9640942216,,E 72 St & Park Ave,,E 72 St & Park Ave,3,Not In Service,False,43
417,,0,5,,3140,,2016-01-26 06:15:10 PM,40.77140426,,-73.9535166,,1 Ave & E 78 St,,1 Ave & E 78 St,3,Not In Service,False,55
418,,0,55,,3141,,2016-01-26 06:17:27 PM,40.76500525,,-73.95818491,,1 Ave & E 68 St,,1 Ave & E 68 St,3,Not In Service,False,59
419,,0,58,,3142,,2016-01-26 06:17:10 PM,40.7612274,,-73.96094022,,1 Ave & E 62 St,,1 Ave & E 62 St,3,Not In Service,False,59
420,,0,21,,3143,,2016-01-26 06:14:32 PM,40.7768286344,,-73.9638876915,,5 Ave & E 78 St,,5 Ave & E 78 St,3,Not In Service,False,47
421,,0,14,,3144,,2016-01-26 06:16:47 PM,40.77677702,,-73.9590097,,E 81 St & Park Ave,,E 81 St & Park Ave,3,Not In Service,False,46
422,,0,49,,3145,,2016-01-26 06:16:57 PM,40.77862688,,-73.95772073,,E 84 St & Park Ave,,E 84 St & Park Ave,3,Not In Service,False,59
423,,0,31,,3146,,2016-01-26 06:17:37 PM,40.77573034,,-73.9567526,,E 81 St & 3 Ave,,E 81 St & 3 Ave,3,Not In Service,False,47
424,,0,23,,3147,,2016-01-26 06:17:55 PM,40.77801203,,-73.95407149,,E 85 St & 3 Ave,,E 85 St & 3 Ave,3,Not In Service,False,39
425,,0,17,,3148,,2016-01-26 06:16:32 PM,40.77565541,,-73.95068615,,E 84 St & 1 Ave,,E 84 St & 1 Ave,3,Not In Service,False,31
426,,0,39,,3150,,2016-01-26 06:18:19 PM,40.77536905,,-73.94803392,,E 85 St & York Ave,,E 85 St & York Ave,3,Not In Service,False,55
427,,0,31,,3151,,2016-01-26 06:14:49 PM,40.7728384,,-73.94989233,,E 81 St & York Ave,,E 81 St & York Ave,3,Not In Service,False,43
428,,0,0,,3152,,1969-12-31 07:00:00 PM,40.76873687,,-73.96119945,,3 Ave & E 71 St,,3 Ave & E 71 St,3,Not In Service,False,0
429,,0,31,,3153,,2016-01-26 06:18:07 PM,40.7681754674,,-73.9591026306,,E 71 St & 2 Ave,,E 71 St & 2 Ave,3,Not In Service,False,37
430,,0,23,,3154,,2016-01-26 06:16:04 PM,40.77314236,,-73.95856158,,E 77 St & 3 Ave,,E 77 St & 3 Ave,3,Not In Service,False,31
431,,0,28,,3155,,2016-01-26 06:15:41 PM,40.76440023,,-73.96648977,,Lexington Ave & E 63 St,,Lexington Ave & E 63 St,3,Not In Service,False,39
432,,0,35,,3156,,2016-01-26 06:16:45 PM,40.76663814,,-73.95348296,,E 72 St & York Ave,,E 72 St & York Ave,3,Not In Service,False,39
433,,0,32,,3157,,2016-01-26 06:15:12 PM,40.77518615,,-73.94446054,,East End Ave & E 86 St,,East End Ave & E 86 St,3,Not In Service,False,47
434,,0,22,,3158,,2016-01-26 06:15:05 PM,40.77163851,,-73.98261428,,W 63 St & Broadway,,W 63 St & Broadway,3,Not In Service,False,31
435,,0,20,,3159,,2016-01-26 06:15:01 PM,40.77492513,,-73.98266566,,W 67 St & Broadway,,W 67 St & Broadway,3,Not In Service,False,31
436,,0,29,,3160,,2016-01-26 06:18:36 PM,40.77896784,,-73.97374737,,Central Park West & W 76 St,,Central Park West & W 76 St,3,Not In Service,False,39
437,,0,52,,3161,,2016-01-26 06:17:16 PM,40.7801839724,,-73.9772853255,,W 76 St & Columbus Ave,,W 76 St & Columbus Ave,3,Not In Service,False,59
438,,0,28,,3162,,2016-01-26 06:16:00 PM,40.78339981,,-73.98093133,,W 78 St & Broadway,,W 78 St & Broadway,3,Not In Service,False,39
439,,0,41,,3163,,2016-01-26 06:17:07 PM,40.7734066,,-73.97782542,,Central Park West & W 68 St,,Central Park West & W 68 St,3,Not In Service,False,43
440,,0,59,,3164,,2016-01-26 06:16:54 PM,40.7770575,,-73.97898475,,Columbus Ave & W 72 St,,Columbus Ave & W 72 St,3,Not In Service,False,67
441,,0,39,,3165,,2016-01-26 06:18:13 PM,40.7757937668,,-73.9762057364,,Central Park West & W 72 St,,Central Park West & W 72 St,3,Not In Service,False,51
442,,0,38,,3166,,2016-01-26 06:15:32 PM,40.7805779901,,-73.9856243134,,Riverside Dr & W 72 St,,Riverside Dr & W 72 St,3,Not In Service,False,41
443,,0,36,,3167,,2016-01-26 06:15:58 PM,40.7796680901,,-73.9809304476,,Amsterdam Ave & W 73 St,,Amsterdam Ave & W 73 St,3,Not In Service,False,55
444,,0,22,,3168,,2016-01-26 06:17:04 PM,40.78472675,,-73.96961715,,Central Park West & W 85 St,,Central Park West & W 85 St,3,Not In Service,False,31
445,,0,51,,3169,,2016-01-26 06:17:40 PM,40.78720869,,-73.98128127,,Riverside Dr & W 82 St,,Riverside Dr & W 82 St,3,Not In Service,False,59
446,,0,31,,3170,,2016-01-26 06:14:54 PM,40.78499979,,-73.97283406,,W 84 St & Columbus Ave,,W 84 St & Columbus Ave,3,Not In Service,False,35
447,,0,32,,3171,,2016-01-26 06:14:48 PM,40.78524672,,-73.97667321,,Amsterdam Ave & W 82 St,,Amsterdam Ave & W 82 St,3,Not In Service,False,39
448,,0,22,,3172,,2016-01-26 06:14:50 PM,40.7785669,,-73.97754961,,W 74 St & Columbus Ave,,W 74 St & Columbus Ave,3,Not In Service,False,27
449,,0,43,,3173,,2016-01-26 06:16:52 PM,40.7775070275,,-73.9888858795,,Riverside Blvd & W 67 St,,Riverside Blvd & W 67 St,3,Not In Service,False,63
450,,0,27,,3175,,2016-01-26 06:18:18 PM,40.77748046,,-73.98288594,,W 70 St & Amsterdam Ave,,W 70 St & Amsterdam Ave,3,Not In Service,False,31
451,,0,35,,3176,,2016-01-26 06:17:20 PM,40.77452835,,-73.98753759,,W 64 St & West End Ave,,W 64 St & West End Ave,3,Not In Service,False,43
452,,0,37,,3177,,2016-01-26 06:15:36 PM,40.7867947,,-73.977112,,W 84 St & Broadway,,W 84 St & Broadway,3,Not In Service,False,63
453,,0,59,,3178,,2016-01-26 06:17:08 PM,40.78414472,,-73.98362492,,Riverside Dr & W 78 St,,Riverside Dr & W 78 St,3,Not In Service,False,59
454,,0,15,,3179,,2016-01-26 06:17:22 PM,40.698617,,-73.941342,,Park Ave & Marcus Garvey Blvd,,Park Ave & Marcus Garvey Blvd,3,Not In Service,False,23
455,,0,29,,3180,,2016-01-26 06:14:45 PM,40.69878,,-73.99712,,Brooklyn Bridge Park - Pier 2,,Brooklyn Bridge Park - Pier 2,3,Not In Service,False,31
456,,0,29,,3183,,2016-01-22 08:26:48 PM,40.7162469,,-74.0334588,,Exchange Place,,Exchange Place,3,Not In Service,False,30
457,,0,13,,3184,,2016-01-22 09:07:49 PM,40.7141454,,-74.0335519,,Paulus Hook,,Paulus Hook,3,Not In Service,False,14
458,,0,9,,3185,,2016-01-26 06:15:56 PM,40.7177325,,-74.043845,,City Hall,,City Hall,3,Not In Service,False,22
459,,0,10,,3186,,2016-01-26 06:17:07 PM,40.7192789,,-74.0424515,,Grove St PATH,,Grove St PATH,3,Not In Service,False,22
460,,0,7,,3187,,2016-01-26 06:18:00 PM,40.7211236,,-74.03805095,,Warren St,,Warren St,3,Not In Service,False,22
461,,0,18,,3188,,2016-01-26 06:14:52 PM,40.7101087,,-74.0858489,,NJCU,,NJCU,3,Not In Service,False,18
462,,0,10,,3189,,2016-01-26 06:16:58 PM,40.714402,,-74.0887723,,West Side Light Rail,,West Side Light Rail,3,Not In Service,False,14
463,,0,18,,3190,,2016-01-26 06:16:44 PM,40.7108044,,-74.0714882,,Garfield Ave Light Rail,,Garfield Ave Light Rail,3,Not In Service,False,18
464,,0,11,,3191,,2016-01-26 06:17:06 PM,40.7182113,,-74.0836394,,Union St,,Union St,3,Not In Service,False,18
465,,0,16,,3192,,2016-01-26 06:17:18 PM,40.7112423,,-74.0557013,,Liberty Light Rail,,Liberty Light Rail,3,Not In Service,False,22
466,,0,17,,3193,,2016-01-26 06:15:45 PM,40.7244188,,-74.0780383,,Lincoln Park,,Lincoln Park,3,Not In Service,False,18
467,,0,8,,3194,,2016-01-26 06:17:24 PM,40.7256033,,-74.06763,,McGinley Square,,McGinley Square,3,Not In Service,False,14
468,,0,17,,3195,,2016-01-26 06:17:43 PM,40.7309459,,-74.0638906,,Sip Ave,,Sip Ave,3,Not In Service,False,34
469,,0,15,,3196,,2016-01-26 06:16:36 PM,40.7443187,,-74.0439909,,Riverview Park,,Riverview Park,3,Not In Service,False,18
470,,0,10,,3197,,2016-01-26 06:16:27 PM,40.752559,,-74.044725,,North St,,North St,3,Not In Service,False,18
471,,0,18,,3198,,2016-01-26 06:17:49 PM,40.7485362,,-74.0403131,,Heights Elevator,,Heights Elevator,3,Not In Service,False,18
472,,0,3,,3199,,2016-01-26 06:14:49 PM,40.7287448,,-74.0321082,,Newport Pkwy,,Newport Pkwy,3,Not In Service,False,14
473,,0,10,,3200,,2016-01-26 06:17:37 PM,40.7111305,,-74.0788855,,MLK Light Rail,,MLK Light Rail,3,Not In Service,False,18
474,,0,18,,3201,,2016-01-26 06:15:16 PM,40.737711,,-74.066921,,Dey St,,Dey St,3,Not In Service,False,18
475,,0,13,,3202,,2016-01-26 06:17:07 PM,40.7272235,,-74.0337589,,Newport PATH,,Newport PATH,3,Not In Service,False,18
476,,0,9,,3203,,2016-01-26 06:15:39 PM,40.727595966,,-74.044247311,,Hamilton Park,,Hamilton Park,3,Not In Service,False,25
477,,0,12,,3205,,2016-01-26 06:15:16 PM,40.7165271,,-74.049425,,JC Medical Center,,JC Medical Center,3,Not In Service,False,22
478,,0,23,,3206,,2016-01-26 06:14:52 PM,40.7311689,,-74.0575736,,Hilltop,,Hilltop,3,Not In Service,False,26
479,,0,12,,3207,,2016-01-26 06:15:56 PM,40.7376037,,-74.0524783,,Oakland Ave,,Oakland Ave,3,Not In Service,False,14
480,,0,17,,3209,,2016-01-26 06:14:49 PM,40.7241765,,-74.0506564,,Brunswick St,,Brunswick St,3,Not In Service,False,18
481,,0,5,,3210,,2016-01-26 06:17:46 PM,40.742677141,,-74.051788633,,Pershing Field,,Pershing Field,3,Not In Service,False,18
482,,0,9,,3211,,2016-01-26 06:17:56 PM,40.72152515,,-74.046304543,,Newark Ave,,Newark Ave,3,Not In Service,False,21
483,,0,15,,3212,,2016-01-26 06:15:25 PM,40.734785818,,-74.050443636,,Christ Hospital,,Christ Hospital,3,Not In Service,False,22
484,,0,5,,3213,,2016-01-26 06:17:13 PM,40.71848892,,-74.047726625,,Van Vorst Park,,Van Vorst Park,3,Not In Service,False,22
485,,0,0,,3214,,2016-01-22 07:09:41 PM,40.7127742,,-74.0364857,,Essex Light Rail,,Essex Light Rail,3,Not In Service,False,22
486,,0,14,,3215,,2016-01-26 06:17:30 PM,40.7467299,,-74.0492509,,Central Ave,,Central Ave,3,Not In Service,False,18
487,,0,11,,3216,,2016-01-26 06:16:19 PM,40.6970299,,-74.0969366,,Columbia Park,,Columbia Park,3,Not In Service,False,18
488,,0,12,,3217,,2016-01-26 06:18:28 PM,40.698650544,,-74.082079678,,Bayside Park,,Bayside Park,3,Not In Service,False,18
489,,0,13,,3220,,2016-01-26 06:17:43 PM,40.73496102,,-74.0595030785,,5 Corners Library,,5 Corners Library,3,Not In Service,False,18
490,,0,14,,3221,,2016-01-26 06:17:29 PM,40.743,,-73.93561,,47 Ave & 31 St,,47 Ave & 31 St,3,Not In Service,False,27
491,,0,29,,3222,,2016-01-26 06:17:29 PM,40.6851595999,,-73.9771136641,,Hanson Pl & St Felix St,,Hanson Pl & St Felix St,3,Not In Service,False,39
492,,0,53,,3223,,2016-01-26 06:16:47 PM,40.7589965596,,-73.9686539769,,E 55 St & 3 Ave,,E 55 St & 3 Ave,3,Not In Service,False,55
493,,0,34,,3224,,2016-01-26 06:15:47 PM,40.739973541,,-74.005138725,,W 13 St & Hudson St,,W 13 St & Hudson St,3,Not In Service,False,39
494,,0,9,,3225,,2016-01-26 06:16:04 PM,40.7236589,,-74.0641943,,Baldwin at Montgomery,,Baldwin at Montgomery,3,Not In Service,False,14
495,,0,42,,3226,,2016-01-26 06:16:45 PM,40.78275,,-73.97137,,W 82 St & Central Park West,,W 82 St & Central Park West,3,Not In Service,False,45
496,,0,16,,3229,,2016-01-26 06:16:48 PM,40.6806176846,,-73.946249485,,Marcy Ave & MacDonough St,,Marcy Ave & MacDonough St,3,Not In Service,False,19
497,,0,7,,3230,,2016-01-26 06:17:40 PM,40.751283597,,-73.9969244599,,Penn Station Valet,,Penn Station Valet,3,Not In Service,False,7
498,,0,50,,3231,,2016-01-26 06:18:03 PM,40.7678008015,,-73.9659208059,,E 67 St & Park Ave,,E 67 St & Park Ave,3,Not In Service,False,59
499,,0,20,,3232,,2016-01-26 06:17:56 PM,40.6896218879,,-73.9830426872,,Bond St & Fulton St,,Bond St & Fulton St,3,Not In Service,False,31
500,,0,33,,3233,,2016-01-26 06:17:50 PM,40.7572456791,,-73.9780591428,,E 48 St & 5 Ave,,E 48 St & 5 Ave,3,Not In Service,False,39
501,,0,28,,3235,,2016-01-26 06:17:22 PM,40.7521652806,,-73.979921937,,E 41 St & Madison Ave,,E 41 St & Madison Ave,3,Not In Service,False,31
502,,0,9,,3236,,2016-01-26 06:16:19 PM,40.758984814,,-73.9937996864,,PABT Valet,,PABT Valet,3,Not In Service,False,9
503,,0,17,,3237,,2016-01-26 06:16:37 PM,40.7538334344,,-73.9426767826,,21 St & 41 Ave,,21 St & 41 Ave,3,Not In Service,False,25
504,,0,36,,3238,,2016-01-26 06:17:02 PM,40.7739139024,,-73.9543953538,,E 80 St & 2 Ave,,E 80 St & 2 Ave,3,Not In Service,False,37
505,,0,16,,3241,,2016-01-26 06:18:18 PM,40.686203,,-73.944694,,Monroe St & Tompkins Ave,,Monroe St & Tompkins Ave,3,Not In Service,False,19
506,,0,2,,3242,,2016-01-26 06:16:26 PM,40.6910292568,,-73.9918336272,,Schermerhorn St & Court St,,Schermerhorn St & Court St,3,Not In Service,False,39
507,,0,27,,3243,,2016-01-26 06:15:31 PM,40.7589238638,,-73.9622622728,,E 58 St & 1 Ave,,E 58 St & 1 Ave,3,Not In Service,False,29
508,,0,30,,3244,,2016-01-26 06:16:44 PM,40.7314372409,,-73.9949034154,,University Pl & E 8 St,,University Pl & E 8 St,3,Not In Service,False,31
